[{"OBJECT_NAME":"SITRO-AIS 8 (ANOKHIN)","OBJECT_ID":"2023-091AD","EPOCH":"2026-03-09T23:44:40.058592","MEAN_MOTION":15.29359179,"ECCENTRICITY":0.0012509,"INCLINATION":97.5169,"RA_OF_ASC_NODE":133.2823,"ARG_OF_PERICENTER":92.0171,"MEAN_ANOMALY":268.2501,"EPHEMERIS_TYPE":0,"CLASSIFICATION_TYPE":"U","NORAD_CAT_ID":57193,"ELEMENT_SET_NO":999,"REV_AT_EPOCH":14927,"BSTAR":0.00064982524,"MEAN_MOTION_DOT":0.00018494,"MEAN_MOTION_DDOT":0},{"OBJECT_NAME":"STARLINK-36500","OBJECT_ID":"2026-002R","EPOCH":"2026-03-09T10:10:54.648768","MEAN_MOTION":15.27533622,"ECCENTRICITY":6.436e-5,"INCLINATION":42.9968,"RA_OF_ASC_NODE":327.1737,"ARG_OF_PERICENTER":351.1054,"MEAN_ANOMALY":8.9786,"EPHEMERIS_TYPE":0,"CLASSIFICATION_TYPE":"U","NORAD_CAT_ID":67320,"ELEMENT_SET_NO":999,"REV_AT_EPOCH":1109,"BSTAR":0.00091419923,"MEAN_MOTION_DOT":0.00024944,"MEAN_MOTION_DDOT":0}]
